     2              NAVIGATION DATA                         RINEX VERSION / TYPE
CCRINEXN V1.6.0 UX  CDDIS               04-MAR-16 15:33     PGM / RUN BY / DATE 
IGS BROADCAST EPHEMERIS FILE                                COMMENT             
    0.1583D-07  0.0000D+00 -0.1192D-06  0.0000D+00          ION ALPHA           
    0.1126D+06 -0.1638D+05 -0.2621D+06  0.6554D+05          ION BETA            
    0.279396772385D-08 0.621724893790D-14   589824     1886 DELTA-UTC: A0,A1,T,W
    17                                                      LEAP SECONDS        
                                                            END OF HEADER       
31 16  3  3 10  0  0.0 0.280087348074D-03-0.170530256582D-11 0.000000000000D+00
    0.340000000000D+02 0.633437500000D+02 0.405695470273D-08-0.285554439897D+01
    0.335834920406D-05 0.831196724903D-02 0.860169529915D-05 0.515370890427D+04
    0.381600000000D+06-0.502914190292D-07 0.251189786016D+01 0.838190317154D-07
    0.972164114743D+00 0.221437500000D+03-0.419057777267D+00-0.778282418587D-08
   -0.642883921553D-10 0.100000000000D+01 0.188600000000D+04 0.000000000000D+00
    0.200000000000D+01 0.000000000000D+00-0.135041773319D-07 0.340000000000D+02
    0.374418000000D+06 0.400000000000D+01 0.000000000000D+00 0.000000000000D+00
32 16  3  3 10  0  0.0 0.954186543822D-05 0.147792889038D-11 0.000000000000D+00
    0.300000000000D+01 0.181250000000D+01 0.465805127803D-08-0.170461318858D+01
    0.147148966789D-06 0.584397930652D-04 0.805221498013D-05 0.515357442093D+04
    0.381600000000D+06-0.149011611938D-07 0.142578340771D+01 0.186264514923D-07
    0.959857628003D+00 0.223625000000D+03-0.314704550811D+00-0.809676592439D-08
   -0.378230030629D-09 0.100000000000D+01 0.188600000000D+04 0.000000000000D+00
    0.113000000000D+02 0.100000000000D+01 0.279396772385D-08 0.300000000000D+01
    0.374400000000D+06 0.000000000000D+00 0.000000000000D+00 0.000000000000D+00
32 16  3  3 11 58 56.0 0.954000279307D-05 0.125055521494D-11 0.000000000000D+00
    0.600000000000D+01 0.146875000000D+01 0.465947991302D-08-0.655838325933D+00
    0.126659870148D-06 0.585373491049D-04 0.832043588162D-05 0.515357506370D+04
    0.388736000000D+06-0.204890966415D-07 0.142572556392D+01-0.186264514923D-07
    0.959854681686D+00 0.219718750000D+03-0.322571114827D+00-0.809569478122D-08
   -0.406802647124D-09 0.100000000000D+01 0.188600000000D+04 0.000000000000D+00
    0.200000000000D+01 0.100000000000D+01 0.279396772385D-08 0.600000000000D+01
    0.388710000000D+06 0.000000000000D+00 0.000000000000D+00 0.000000000000D+00
 5 16  3  3 11 59 44.0-0.140903983265D-03 0.341060513165D-11 0.000000000000D+00
    0.540000000000D+02 0.421875000000D+01 0.524807574628D-08 0.188998308159D+01
    0.314787030220D-06 0.457428197842D-02 0.731833279133D-05 0.515373622131D+04
    0.388784000000D+06-0.109896063805D-06 0.373632310074D+00 0.726431608200D-07
    0.946698327317D+00 0.233656250000D+03 0.478126332155D+00-0.830248868912D-08
    0.882179603464D-10 0.100000000000D+01 0.188600000000D+04 0.000000000000D+00
    0.200000000000D+01 0.000000000000D+00-0.107102096081D-07 0.540000000000D+02
    0.385350000000D+06 0.400000000000D+01 0.000000000000D+00 0.000000000000D+00
10 16  3  3 11 59 44.0 0.346233136952D-04-0.682121026330D-11 0.000000000000D+00
    0.000000000000D+00 0.116562500000D+02 0.484413034890D-08 0.307228568951D+01
    0.623986124992D-06 0.121736316942D-02 0.751391053200D-05 0.515368124390D+04
    0.388784000000D+06-0.186264514923D-08 0.380320338509D+00-0.186264514923D-08
    0.959851859717D+00 0.235937500000D+03-0.286335086485D+01-0.807819363205D-08
    0.148577617426D-09 0.100000000000D+01 0.188600000000D+04 0.000000000000D+00
    0.200000000000D+01 0.000000000000D+00 0.232830643654D-08 0.000000000000D+00
    0.385578000000D+06 0.400000000000D+01 0.000000000000D+00 0.000000000000D+00
14 16  3  3 11 59 44.0-0.340864062309D-06-0.216004991671D-11 0.000000000000D+00
    0.210000000000D+02 0.287500000000D+01 0.453376047815D-08 0.103080992581D+01
    0.186264514923D-06 0.835614919197D-02 0.890530645847D-05 0.515373174286D+04
    0.388784000000D+06-0.150874257088D-06 0.150771823383D+01-0.223517417908D-07
    0.964173584511D+00 0.213593750000D+03-0.195115106143D+01-0.814783973624D-08
   -0.490020413135D-09 0.100000000000D+01 0.188600000000D+04 0.000000000000D+00
    0.200000000000D+01 0.000000000000D+00-0.931322574616D-08 0.210000000000D+02
    0.381600000000D+06 0.000000000000D+00 0.000000000000D+00 0.000000000000D+00
18 16  3  3 11 59 44.0 0.489633530378D-03 0.397903932026D-11 0.000000000000D+00
    0.800000000000D+01 0.518750000000D+01 0.552665877895D-08 0.265673926966D+01
    0.154599547386D-06 0.167410445865D-01 0.698119401932D-05 0.515366206169D+04
    0.388784000000D+06 0.104308128357D-06 0.354389698622D+00-0.216066837311D-06
    0.925338453547D+00 0.221312500000D+03-0.190855499191D+01-0.820998483596D-08
    0.814319633967D-10 0.100000000000D+01 0.188600000000D+04 0.000000000000D+00
    0.200000000000D+01 0.000000000000D+00-0.111758708954D-07 0.800000000000D+01
    0.385956000000D+06 0.400000000000D+01 0.000000000000D+00 0.000000000000D+00
21 16  3  3 11 59 44.0-0.513176433742D-03-0.170530256582D-11 0.000000000000D+00
    0.800000000000D+01-0.490000000000D+02 0.493699135979D-08-0.275723195040D+01
   -0.271946191788D-05 0.232351910090D-01 0.930577516556D-05 0.515366462707D+04
    0.388784000000D+06 0.473111867905D-06-0.687529369604D+00 0.204890966415D-07
    0.935891132651D+00 0.178812500000D+03-0.182209928664D+01-0.789104297933D-08
    0.407159816983D-09 0.100000000000D+01 0.188600000000D+04 0.000000000000D+00
    0.200000000000D+01 0.000000000000D+00-0.116415321827D-07 0.800000000000D+01
    0.381618000000D+06 0.400000000000D+01 0.000000000000D+00 0.000000000000D+00
 1 16  3  3 12  0  0.0 0.133244320750D-04 0.102318153950D-11 0.000000000000D+00
    0.780000000000D+02-0.342500000000D+02 0.448732977244D-08-0.102527153301D+01
   -0.179745256901D-05 0.510010705329D-02 0.958517193794D-05 0.515365362930D+04
    0.388800000000D+06 0.102445483208D-06-0.656453967211D+00-0.353902578354D-07
    0.963999144697D+00 0.196218750000D+03 0.458059208370D+00-0.796568894578D-08
    0.254296306748D-09 0.000000000000D+00 0.188600000000D+04 0.000000000000D+00
    0.200000000000D+01 0.000000000000D+00 0.512227416039D-08 0.780000000000D+02
    0.381600000000D+06 0.400000000000D+01 0.000000000000D+00 0.000000000000D+00
 2 16  3  3 12  0  0.0 0.599380582571D-03-0.227373675443D-12 0.000000000000D+00
    0.280000000000D+02-0.287500000000D+02 0.512449917025D-08-0.575555306943D+00
   -0.129640102386D-05 0.155248048250D-01 0.964663922787D-05 0.515373280525D+04
    0.388800000000D+06-0.633299350738D-07-0.700117950837D+00 0.277534127235D-06
    0.942707834971D+00 0.188000000000D+03-0.215551205078D+01-0.847035282419D-08
    0.307512809143D-09 0.100000000000D+01 0.188600000000D+04 0.000000000000D+00
    0.200000000000D+01 0.000000000000D+00-0.204890966415D-07 0.280000000000D+02
    0.381618000000D+06 0.400000000000D+01 0.000000000000D+00 0.000000000000D+00
 3 16  3  3 12  0  0.0-0.316756777465D-04-0.454747350886D-11 0.000000000000D+00
    0.460000000000D+02 0.100000000000D+02 0.490699011012D-08 0.140767436173D+01
    0.659376382828D-06 0.261601409875D-03 0.718235969543D-05 0.515375016213D+04
    0.388800000000D+06 0.819563865662D-07 0.384399248160D+00-0.260770320892D-07
    0.959591480780D+00 0.240125000000D+03-0.305675784692D+01-0.821712799065D-08
    0.114290474943D-09 0.000000000000D+00 0.188600000000D+04 0.000000000000D+00
    0.200000000000D+01 0.000000000000D+00 0.186264514923D-08 0.460000000000D+02
    0.381600000000D+06 0.400000000000D+01 0.000000000000D+00 0.000000000000D+00
 4 16  3  3 12  0  0.0-0.251587014645D-03-0.909494701773D-12 0.000000000000D+00
    0.380000000000D+02 0.339375000000D+02 0.531272129617D-08 0.217090001646D+01
    0.172480940819D-05 0.820705469232D-02 0.453554093838D-05 0.515361991119D+04
    0.388800000000D+06-0.838190317154D-07-0.273516466650D+01-0.100582838059D-06
    0.983585129354D+00 0.304718750000D+03 0.857344427722D+00-0.803247744207D-08
    0.151792037033D-09 0.100000000000D+01 0.188600000000D+04 0.000000000000D+00
    0.200000000000D+01 0.630000000000D+02-0.190921127796D-07 0.380000000000D+02
    0.381600000000D+06 0.400000000000D+01 0.000000000000D+00 0.000000000000D+00
 5 16  3  3 12  0  0.0-0.140904448926D-03 0.341060513165D-11 0.000000000000D+00
    0.980000000000D+02 0.421875000000D+01 0.524807574628D-08 0.189231581272D+01
    0.314787030220D-06 0.457427976653D-02 0.731833279133D-05 0.515373621559D+04
    0.388800000000D+06-0.109896063805D-06 0.373632187189D+00 0.726431608200D-07
    0.946698328780D+00 0.233656250000D+03 0.478127302070D+00-0.830213153139D-08
    0.878608026122D-10 0.100000000000D+01 0.188600000000D+04 0.000000000000D+00
    0.200000000000D+01 0.000000000000D+00-0.107102096081D-07 0.980000000000D+02
    0.381618000000D+06 0.400000000000D+01 0.000000000000D+00 0.000000000000D+00
 6 16  3  3 12  0  0.0 0.154601410031D-03 0.591171556152D-11 0.000000000000D+00
    0.590000000000D+02-0.275625000000D+02 0.450875923649D-08-0.251322824810D+00
   -0.155717134476D-05 0.364207662642D-03 0.983290374279D-05 0.515364905739D+04
    0.388800000000D+06-0.391155481338D-07-0.664900570932D+00 0.186264514923D-07
    0.963836716902D+00 0.193468750000D+03-0.186365843983D+01-0.795568852922D-08
    0.295726603914D-09 0.000000000000D+00 0.188600000000D+04 0.000000000000D+00
    0.200000000000D+01 0.000000000000D+00 0.419095158577D-08 0.590000000000D+02
    0.381600000000D+06 0.400000000000D+01 0.000000000000D+00 0.000000000000D+00
